CCSDS_OMM_VERS,COMMENT,CREATION_DATE,ORIGINATOR,OBJECT_NAME,OBJECT_ID,CENTER_NAME,REF_FRAME,TIME_SYSTEM,MEAN_ELEMENT_THEORY,EPOCH,MEAN_MOTION,ECCENTRICITY,INCLINATION,RA_OF_ASC_NODE,ARG_OF_PERICENTER,MEAN_ANOMALY,EPHEMERIS_TYPE,CLASSIFICATION_TYPE,NORAD_CAT_ID,ELEMENT_SET_NO,REV_AT_EPOCH,BSTAR,MEAN_MOTION_DOT,MEAN_MOTION_DDOT,SEMIMAJOR_AXIS,PERIOD,APOAPSIS,PERIAPSIS,OBJECT_TYPE,RCS_SIZE,COUNTRY_CODE,LAUNCH_DATE,SITE,DECAY_DATE,FILE,GP_ID,TLE_LINE0,TLE_LINE1,TLE_LINE2
"2.0","GENERATED VIA SPACE-TRACK.ORG API","2013-01-17T15:50:49","18 SPCS","BLITS","2009-049G","EARTH","TEME","UTC","SGP4","2013-01-17T14:18:49.102560","14.21599223","0.00043010","98.6171","72.4505","138.3897","221.7615","0","U","35871","999","17242","0.00004311900000","0.00000052","0.0000000000000","7198.091","101.294","823.051","816.860","PAYLOAD","SMALL","CIS","2009-09-17","TTMTR","","1423794","91943782","0 BLITS","1 35871U 09049G   13017.59640165  .00000052  00000-0  43119-4 0  9993","2 35871 098.6171 072.4505 0004301 138.3897 221.7615 14.21599223172426"
"2.0","GENERATED VIA SPACE-TRACK.ORG API","2013-01-17T23:41:21","18 SPCS","BLITS","2009-049G","EARTH","TEME","UTC","SGP4","2013-01-18T02:08:16.824768","14.21599385","0.00042880","98.6172","72.9316","136.6664","223.4850","0","U","35871","999","17249","0.00004646900000","0.00000059","0.0000000000000","7198.090","101.294","823.042","816.868","PAYLOAD","SMALL","CIS","2009-09-17","TTMTR","","1424052","91946930","0 BLITS","1 35871U 09049G   13018.08908362  .00000059  00000-0  46469-4 0  9992","2 35871 098.6172 072.9316 0004288 136.6664 223.4850 14.21599385172495"
"2.0","GENERATED VIA SPACE-TRACK.ORG API","2013-01-18T16:31:13","18 SPCS","BLITS","2009-049G","EARTH","TEME","UTC","SGP4","2013-01-18T17:20:26.767391","14.21599384","0.00043120","98.6173","73.5502","134.6695","225.4819","0","U","35871","999","17258","0.00004340300000","0.00000052","0.0000000000000","7198.090","101.294","823.059","816.851","PAYLOAD","SMALL","CIS","2009-09-17","TTMTR","","1424472","91952875","0 BLITS","1 35871U 09049G   13018.72253203  .00000052  00000-0  43403-4 0  9998","2 35871 098.6173 073.5502 0004312 134.6695 225.4819 14.21599384172586"
"2.0","GENERATED VIA SPACE-TRACK.ORG API","2013-01-18T23:36:02","18 SPCS","BLITS","2009-049G","EARTH","TEME","UTC","SGP4","2013-01-19T01:47:12.316703","14.21599388","0.00043340","98.6173","73.8938","133.9719","226.1814","0","U","35871","999","17263","0.00004087400000","0.00000047","0.0000000000000","7198.090","101.294","823.075","816.835","PAYLOAD","SMALL","CIS","2009-09-17","TTMTR","","1424726","91955972","0 BLITS","1 35871U 09049G   13019.07444811  .00000047  00000-0  40874-4 0  9997","2 35871 098.6173 073.8938 0004334 133.9719 226.1814 14.21599388172638"
"2.0","GENERATED VIA SPACE-TRACK.ORG API","2013-01-19T15:42:32","18 SPCS","BLITS","2009-049G","EARTH","TEME","UTC","SGP4","2013-01-19T16:59:22.280064","14.21599086","0.00044220","98.6172","74.5122","133.0531","227.0994","0","U","35871","999","17272","0.00002693800000","0.00000016","0.0000000000000","7198.091","101.294","823.139","816.773","PAYLOAD","SMALL","CIS","2009-09-17","TTMTR","","1425064","91961249","0 BLITS","1 35871U 09049G   13019.70789676  .00000016  00000-0  26938-4 0  9999","2 35871 098.6172 074.5122 0004422 133.0531 227.0994 14.21599086172725"
"2.0","GENERATED VIA SPACE-TRACK.ORG API","2013-01-19T23:40:18","18 SPCS","BLITS","2009-049G","EARTH","TEME","UTC","SGP4","2013-01-20T04:48:50.052383","14.21598984","0.00044440","98.6171","74.9932","131.6096","228.5448","0","U","35871","999","17279","0.00001859100000","-0.00000002","0.0000000000000","7198.091","101.294","823.155","816.757","PAYLOAD","SMALL","CIS","2009-09-17","TTMTR","","1425172","91963739","0 BLITS","1 35871U 09049G   13020.20057931 -.00000002  00000-0  18591-4 0  9990","2 35871 098.6171 074.9932 0004444 131.6096 228.5448 14.21598984172794"
"2.0","GENERATED VIA SPACE-TRACK.ORG API","2013-01-20T07:47:09","18 SPCS","BLITS","2009-049G","EARTH","TEME","UTC","SGP4","2013-01-20T13:15:35.607743","14.21599015","0.00044470","98.6171","75.3368","130.6113","229.5453","0","U","35871","999","17284","0.00001866000000","-0.00000002","0.0000000000000","7198.091","101.294","823.157","816.755","PAYLOAD","SMALL","CIS","2009-09-17","TTMTR","","1425308","91966479","0 BLITS","1 35871U 09049G   13020.55249546 -.00000002  00000-0  18660-4 0  9990","2 35871 098.6171 075.3368 0004447 130.6113 229.5453 14.21599015172843"
"2.0","GENERATED VIA SPACE-TRACK.ORG API","2013-01-20T15:42:57","18 SPCS","BLITS","2009-049G","EARTH","TEME","UTC","SGP4","2013-01-20T16:38:17.819519","14.21598839","0.00044420","98.6172","75.4743","130.4508","229.7039","0","U","35871","999","17286","0.00001261700000","-0.00000015","0.0000000000000","7198.092","101.294","823.154","816.759","PAYLOAD","SMALL","CIS","2009-09-17","TTMTR","","1425476","91969735","0 BLITS","1 35871U 09049G   13020.69326180 -.00000015  00000-0  12617-4 0  9995","2 35871 098.6172 075.4743 0004442 130.4508 229.7039 14.21598839172860"
"2.0","GENERATED VIA SPACE-TRACK.ORG API","2013-01-21T13:52:46","18 SPCS","BLITS","2009-049G","EARTH","TEME","UTC","SGP4","2013-01-21T02:46:24.466079","14.21599005","0.00043970","98.6171","75.8870","129.0660","231.0911","0","U","35871","999","17292","0.00001710300000","-0.00000005","0.0000000000000","7198.091","101.294","823.121","816.791","PAYLOAD","SMALL","CIS","2009-09-17","TTMTR","","1425632","91972453","0 BLITS","1 35871U 09049G   13021.11556095 -.00000005  00000-0  17103-4 0  9997","2 35871 098.6171 075.8870 0004397 129.0660 231.0911 14.21599005172924"
"2.0","GENERATED VIA SPACE-TRACK.ORG API","2013-01-21T15:41:59","18 SPCS","BLITS","2009-049G","EARTH","TEME","UTC","SGP4","2013-01-21T16:17:13.314912","14.21598983","0.00044060","98.6171","76.4367","127.6638","232.4937","0","U","35871","999","17300","0.00001513800000","-0.00000010","0.0000000000000","7198.091","101.294","823.128","816.785","PAYLOAD","SMALL","CIS","2009-09-17","TTMTR","","1425837","91977377","0 BLITS","1 35871U 09049G   13021.67862633 -.00000010  00000-0  15138-4 0  9998","2 35871 098.6171 076.4367 0004406 127.6638 232.4937 14.21598983173009"
"2.0","GENERATED VIA SPACE-TRACK.ORG API","2013-01-21T23:45:58","18 SPCS","BLITS","2009-049G","EARTH","TEME","UTC","SGP4","2013-01-22T02:25:19.957152","14.21599045","0.00043890","98.6170","76.8490","126.2363","233.9222","0","U","35871","999","17306","0.00001634100000","-0.00000007","0.0000000000000","7198.091","101.294","823.115","816.797","PAYLOAD","SMALL","CIS","2009-09-17","TTMTR","","1425985","91980204","0 BLITS","1 35871U 09049G   13022.10092543 -.00000007  00000-0  16341-4 0  9995","2 35871 098.6170 076.8490 0004389 126.2363 233.9222 14.21599045173068"
"2.0","GENERATED VIA SPACE-TRACK.ORG API","2013-01-22T15:46:31","18 SPCS","BLITS","2009-049G","EARTH","TEME","UTC","SGP4","2013-01-22T15:56:08.799071","14.21599162","0.00043770","98.6171","77.3989","124.3936","235.7660","0","U","35871","999","17314","0.00001974000000","0.00000000","0.0000000000000","7198.091","101.294","823.106","816.805","PAYLOAD","SMALL","CIS","2009-09-17","TTMTR","","1426302","91985956","0 BLITS","1 35871U 09049G   13022.66399073  .00000000  00000-0  19740-4 0  9992","2 35871 098.6171 077.3989 0004377 124.3936 235.7660 14.21599162173145"
"2.0","GENERATED VIA SPACE-TRACK.ORG API","2013-01-23T04:58:56","18 SPCS","BLITS","2009-049G","EARTH","TEME","UTC","SGP4","2013-01-23T02:04:14.968704","14.21601723","0.00041530","98.6174","77.8117","121.9084","238.2498","0","U","35871","999","17320","0.00010202000000","0.00000181","0.0000000000000","7198.082","101.294","822.936","816.958","PAYLOAD","SMALL","CIS","2009-09-17","TTMTR","","1426765","91990495","0 BLITS","1 35871U 09049G   13023.08628436  .00000181  00000-0  10202-3 0  9990","2 35871 098.6174 077.8117 0004153 121.9084 238.2498 14.21601723173206"
"2.0","GENERATED VIA SPACE-TRACK.ORG API","2013-01-23T07:39:18","18 SPCS","BLITS","2009-049G","EARTH","TEME","UTC","SGP4","2013-01-23T02:04:14.968704","14.21601723","0.00041530","98.6174","77.8117","121.9084","238.2498","0","U","35871","999","17320","0.00010202000000","0.00000181","0.0000000000000","7198.082","101.294","822.936","816.958","PAYLOAD","SMALL","CIS","2009-09-17","TTMTR","","1426831","91991505","0 BLITS","1 35871U 09049G   13023.08628436  .00000181  00000-0  10202-3 0  9990","2 35871 098.6174 077.8117 0004153 121.9084 238.2498 14.21601723173206"
"2.0","GENERATED VIA SPACE-TRACK.ORG API","2013-01-22T23:38:44","18 SPCS","BLITS","2009-049G","EARTH","TEME","UTC","SGP4","2013-01-23T02:04:15.422304","14.21599217","0.00043740","98.6169","77.8107","123.2179","236.9418","0","U","35871","999","17320","0.00002066300000","0.00000002","0.0000000000000","7198.091","101.294","823.104","816.807","PAYLOAD","SMALL","CIS","2009-09-17","TTMTR","","1426661","91988865","0 BLITS","1 35871U 09049G   13023.08628961  .00000002  00000-0  20663-4 0  9998","2 35871 098.6169 077.8107 0004374 123.2179 236.9418 14.21599217173205"
"2.0","GENERATED VIA SPACE-TRACK.ORG API","2013-01-23T03:54:00","18 SPCS","BLITS","2009-049G","EARTH","TEME","UTC","SGP4","2013-01-23T02:04:15.422304","14.21601723","0.00041530","98.6174","77.8117","121.9085","238.2766","0","U","35871","999","17320","0.00010202000000","0.00000181","0.0000000000000","7198.082","101.294","822.936","816.958","PAYLOAD","SMALL","CIS","2009-09-17","TTMTR","","1426758","91990484","0 BLITS","1 35871U 09049G   13023.08628961  .00000181  00000-0  10202-3 0  9993","2 35871 098.6174 077.8117 0004153 121.9085 238.2766 14.21601723173205"
